[{"OBJECT_NAME":"STARLINK-5932","OBJECT_ID":"2023-037AF","EPOCH":"2026-03-09T21:29:17.319840","MEAN_MOTION":14.98330775,"ECCENTRICITY":0.00027938,"INCLINATION":69.9983,"RA_OF_ASC_NODE":283.8207,"ARG_OF_PERICENTER":270.9348,"MEAN_ANOMALY":89.1491,"EPHEMERIS_TYPE":0,"CLASSIFICATION_TYPE":"U","NORAD_CAT_ID":55943,"ELEMENT_SET_NO":999,"REV_AT_EPOCH":16401,"BSTAR":-2.0500938e-5,"MEAN_MOTION_DOT":-3.38e-6,"MEAN_MOTION_DDOT":0},{"OBJECT_NAME":"SITRO-AIS 24","OBJECT_ID":"2024-199G","EPOCH":"2026-03-09T22:55:13.311552","MEAN_MOTION":14.95574575,"ECCENTRICITY":0.00134035,"INCLINATION":97.3325,"RA_OF_ASC_NODE":273.3822,"ARG_OF_PERICENTER":42.6191,"MEAN_ANOMALY":317.6069,"EPHEMERIS_TYPE":0,"CLASSIFICATION_TYPE":"U","NORAD_CAT_ID":61741,"ELEMENT_SET_NO":999,"REV_AT_EPOCH":11705,"BSTAR":0.00037285708,"MEAN_MOTION_DOT":4.091e-5,"MEAN_MOTION_DDOT":0}]
